YAM-7                   
1 60504U 24149AN  26068.71799904  .00009009  00000+0  30984-3 0  9997
2 60504  97.3828 149.4631 0001973 296.5121  63.5918 15.30304554 86835
STARLINK-32136          
1 61515U 24183G   26068.52245747 -.00000578  00000+0 -74144-5 0  9990
2 61515  53.1619 143.4555 0001110  94.1261 265.9867 15.30186561 79621
